BEIDOU-2 IGSO-1 (C06)   
1 36828U 10036A   24255.56707317 -.00000136  00000+0  00000+0 0  9990
2 36828  54.2557 168.7877 0041032 204.9151 287.8555  1.00257255 51758
BEIDOU-2 G4 (C04)       
1 37210U 10057A   24255.90110583 -.00000107  00000+0  00000+0 0  9998
2 37210   2.0492  69.6206 0006949 157.5682 248.7517  1.00271960 50840
BEIDOU-2 IGSO-2 (C07)   
1 37256U 10068A   24255.46820612 -.00000154  00000+0  00000+0 0  9994
2 37256  48.7218 279.7672 0040444 217.7140 130.1437  1.00275791 50335
BEIDOU-2 IGSO-3 (C08)   
1 37384U 11013A   24255.88774714 -.00000147  00000+0  00000+0 0  9996
2 37384  61.4860  46.2782 0032522 174.4818 197.3584  1.00287104 49214
BEIDOU-2 IGSO-4 (C09)   
1 37763U 11038A   24254.70785828 -.00000070  00000+0  00000+0 0  9997
2 37763  54.5622 171.4275 0129002 229.3274 298.3756  1.00290014 48180
BEIDOU-2 IGSO-5 (C10)   
1 37948U 11073A   24255.46345773 -.00000095  00000+0  00000+0 0  9993
2 37948  48.8559 279.4601 0103135 221.7289 112.9320  1.00273853 46675
BEIDOU-2 G5 (C05)       
1 38091U 12008A   24255.88103646  .00000059  00000+0  00000+0 0  9998
2 38091   2.2823  71.2676 0004489 211.6693  84.3883  1.00275497 45910
BEIDOU-2 M3 (C11)       
1 38250U 12018A   24255.38263159 -.00000063  00000+0  00000+0 0  9993
2 38250  56.2771 326.4737 0024018 260.2298  99.5621  1.86234042 83951
BEIDOU-2 M4 (C12)       
1 38251U 12018B   24255.31251418 -.00000062  00000+0  00000+0 0  9991
2 38251  56.1833 325.7408 0015029 260.8974  98.9961  1.86231954 83955
BEIDOU-2 M6 (C14)       
1 38775U 12050B   24255.02209257  .00000019  00000+0  00000+0 0  9991
2 38775  55.9825  84.2947 0011216 348.8574  11.1822  1.86231162 81318
BEIDOU-2 G6 (C02)       
1 38953U 12059A   24255.89355258 -.00000173  00000+0  00000+0 0  9998
2 38953   2.7749  79.7984 0006912 314.6248   2.7126  1.00272845 43452
BEIDOU-3S IGSO-1S (C31) 
1 40549U 15019A   24255.60223733 -.00000149  00000+0  00000+0 0  9995
2 40549  50.4121 303.1716 0036511 197.2523 163.5256  1.00286748 34622
BEIDOU-3S M2S (C58)     
1 40748U 15037A   24254.97520014 -.00000061  00000+0  00000+0 0  9990
2 40748  55.4129 324.1189 0012213 248.4162 111.5177  1.86229192 62129
BEIDOU-3S M1S (C57)     
1 40749U 15037B   24255.24780929 -.00000060  00000+0  00000+0 0  9994
2 40749  55.4155 324.0960 0002895 318.1540  41.8879  1.86227589 62138
BEIDOU-3S IGSO-2S (C56) 
1 40938U 15053A   24255.50101562 -.00000079  00000+0  00000+0 0  9991
2 40938  50.2269 266.3952 0052908 190.2416 170.2697  1.00286978 32907
BEIDOU-2 IGSO-6 (C13)   
1 41434U 16021A   24248.98937934 -.00000122  00000+0  00000+0 0  9992
2 41434  59.2971  44.5428 0049714 221.2043 167.2128  1.00257275 30961
BEIDOU-2 G7 (C03)       
1 41586U 16037A   24255.89516884 -.00000350  00000+0  00000+0 0  9995
2 41586   1.5827  65.7384 0006831 358.5528 359.8163  1.00265311   437
BEIDOU-3 M1 (C19)       
1 43001U 17069A   24255.32497393  .00000022  00000+0  00000+0 0  9991
2 43001  56.1324  84.3931 0007370 308.9285  51.0709  1.86231484 46617
BEIDOU-3 M2 (C20)       
1 43002U 17069B   24254.72547691  .00000017  00000+0  00000+0 0  9996
2 43002  56.1318  84.4483 0005996 345.6085  14.4386  1.86231027 46596
BEIDOU-3 M7 (C27)       
1 43107U 18003A   24255.01073489 -.00000063  00000+0  00000+0 0  9995
2 43107  54.8713 324.6708 0002887  87.5725 272.5236  1.86232521 45358
BEIDOU-3 M8 (C28)       
1 43108U 18003B   24255.48883933 -.00000060  00000+0  00000+0 0  9997
2 43108  54.8638 324.6395 0004587 250.5551 109.4588  1.86230964 45374
BEIDOU-3 M4 (C22)       
1 43207U 18018A   24255.39308027  .00000023  00000+0  00000+0 0  9997
2 43207  56.0912  84.4770 0005065  27.6480 332.4444  1.86231395 44756
BEIDOU-3 M3 (C21)       
1 43208U 18018B   24255.45971343  .00000023  00000+0  00000+0 0  9992
2 43208  56.0910  84.4790 0005436 329.3451  30.6887  1.86231359 44757
BEIDOU-3 M9 (C29)       
1 43245U 18029A   24255.14320444 -.00000058  00000+0  00000+0 0  9990
2 43245  54.7521 322.3664 0001852 229.2010 130.8477  1.86232765 43908
BEIDOU-3 M10 (C30)      
1 43246U 18029B   24255.07275378 -.00000059  00000+0  00000+0 0  9999
2 43246  54.7492 322.3958 0002570 353.3316   6.7297  1.86232968 43881
BEIDOU-2 IGSO-7 (C16)   
1 43539U 18057A   24255.71632951 -.00000148  00000+0  00000+0 0  9999
2 43539  55.1491 168.6366 0078376 233.6096 319.4120  1.00285631 22681
BEIDOU-3 M5 (C23)       
1 43581U 18062A   24255.29693052  .00000038  00000+0  00000+0 0  9991
2 43581  54.1254 204.2030 0004580 289.8185  70.1174  1.86228745 41641
BEIDOU-3 M6 (C24)       
1 43582U 18062B   24255.16235392  .00000039  00000+0  00000+0 0  9998
2 43582  54.1251 204.1971 0005324   9.6837 350.3120  1.86229806 41644
BEIDOU-3 M12 (C26)      
1 43602U 18067A   24255.09535941  .00000038  00000+0  00000+0 0  9990
2 43602  54.2160 202.8884 0007510  22.3868 337.6321  1.86227696 41129
BEIDOU-3 M11 (C25)      
1 43603U 18067B   24255.22883008  .00000037  00000+0  00000+0 0  9995
2 43603  54.2133 202.8487 0004236   8.1386 351.8544  1.86231438 41155
BEIDOU-3 M13 (C32)      
1 43622U 18072A   24255.19072695  .00000021  00000+0  00000+0 0  9993
2 43622  56.0629  84.0116 0004134 309.6207  50.4072  1.86231467 40668
BEIDOU-3 M14 (C33)      
1 43623U 18072B   24255.59314032  .00000024  00000+0  00000+0 0  9995
2 43623  56.0652  83.9915 0003131   5.5204 354.5483  1.86231438 40667
BEIDOU-3 M16 (C35)      
1 43647U 18078A   24255.21841117 -.00000058  00000+0  00000+0 0  9993
2 43647  54.6482 322.4545 0005816  14.4426 345.6387  1.86232251 40168
BEIDOU-3 M15 (C34)      
1 43648U 18078B   24255.34754006 -.00000057  00000+0  00000+0 0  9997
2 43648  54.6438 322.4526 0002504  22.1733 337.9023  1.86232301 40186
BEIDOU-3 G1 (C59)       
1 43683U 18085A   24255.86229855 -.00000275  00000+0  00000+0 0  9992
2 43683   2.3988 106.4054 0002957  18.7187 316.6836  1.00274886 21609
BEIDOU-3 M17 (C36)      
1 43706U 18093A   24253.35107973  .00000047  00000+0  00000+0 0  9991
2 43706  54.2087 204.2138 0009567 286.9442  72.9344  1.86228445 39517
BEIDOU-3 M18 (C37)      
1 43707U 18093B   24255.36355355  .00000038  00000+0  00000+0 0  9994
2 43707  54.2092 204.1373 0007895 315.0401  44.8812  1.86229929 39544
BEIDOU-3 IGSO-1 (C38)   
1 44204U 19023A   24255.83377190 -.00000185  00000+0  00000+0 0  9998
2 44204  57.7731  44.3208 0024143 205.1041 161.7362  1.00275535   761
BEIDOU-2 G8 (C01)       
1 44231U 19027A   24255.86229855 -.00000244  00000+0  00000+0 0  9995
2 44231   1.6855  74.3335 0002860 178.8695 193.1389  1.00270438 19634
BEIDOU-3 IGSO-2 (C39)   
1 44337U 19035A   24255.71373082 -.00000153  00000+0  00000+0 0  9996
2 44337  55.1826 164.5126 0034806 203.0026 359.7792  1.00270360 19213
BEIDOU-3 M24 (C46)      
1 44542U 19061A   24254.35941095  .00000045  00000+0  00000+0 0  9996
2 44542  54.4362 204.4826 0008429 351.4259   8.5449  1.86229421 33789
BEIDOU-3 M23 (C45)      
1 44543U 19061B   24255.81571118  .00000035  00000+0  00000+0 0  9993
2 44543  54.4345 204.4024 0005661 336.8705 192.0292  1.86229577 33810
BEIDOU-3 IGSO-3 (C40)   
1 44709U 19073A   24254.49512143 -.00000144  00000+0  00000+0 0  9998
2 44709  55.9045 287.8214 0041453 190.4861 169.5108  1.00276623 17995
BEIDOU-3 M22 (C44)      
1 44793U 19078A   24255.27858922 -.00000058  00000+0  00000+0 0  9995
2 44793  54.4958 322.3740 0004530  21.8149 338.2691  1.86232232 32659
BEIDOU-3 M21 (C43)      
1 44794U 19078B   24255.40816608 -.00000057  00000+0  00000+0 0  9995
2 44794  54.4692 322.3436 0002522   8.2716 351.7973  1.86232659 32662
BEIDOU-3 M19 (C41)      
1 44864U 19090A   24255.89288060  .00000027  00000+0  00000+0 0  9991
2 44864  55.9973  84.1554 0015407 281.1817 236.3309  1.86231727 32253
BEIDOU-3 M20 (C42)      
1 44865U 19090B   24255.55523517  .00000024  00000+0  00000+0 0  9991
2 44865  55.9986  84.1999 0013055 296.5320  84.3130  1.86231683 32239
BEIDOU-3 G2 (C60)       
1 45344U 20017A   24255.88520671 -.00000138  00000+0  00000+0 0  9996
2 45344   2.4274  32.6963 0003098 172.5837 184.8272  1.00272274 16805
BEIDOU-3 G3 (C61)       
1 45807U 20040A   24255.86363262 -.00000351  00000+0  00000+0 0  9992
2 45807   0.9344  51.0749 0002941 348.3106  13.4147  1.00273723 15611
BEIDOU-3 G4             
1 56564U 23066A   24255.90110583 -.00000109  00000+0  00000+0 0  9997
2 56564   1.9131 288.4343 0006099 227.9421 319.4027  1.00270838  4948
BEIDOU-3 M25            
1 58654U 23207A   24255.49103626  .00000020  00000+0  00000+0 0  9991
2 58654  55.1816  84.1238 0000091 235.8756 124.1887  1.86232289  4857
BEIDOU-3 M26            
1 58655U 23207B   24255.82712116  .00000023  00000+0  00000+0 0  9992
2 58655  55.1840  84.0978 0001563 221.6417 138.4123  1.86231858  4848
